[
    {
        "Altitude(m)": 610399.5494759483,
        "Argument of Periapsis(deg)": 0.0,
        "Eccentricity": 0.0,
        "Inclination(deg)": 60.0,
        "Latitude(deg)": 52.111391879304925,
        "Longitude(deg)": 22.584162264077392,
        "Mean Anomaly(deg)": 65.4545,
        "RAAN(deg)": 75.0,
        "Satellite Name": "Test1 334",
        "Satellite Number": 334,
        "Semi-Major Axis(m)": 6980739.136638005,
        "Time(s)": 0
    },
    {
        "Altitude(m)": 610481.7010467569,
        "Argument of Periapsis(deg)": 0.00010418945913296404,
        "Eccentricity": 0.0,
        "Inclination(deg)": 60.0,
        "Latitude(deg)": 52.4709956553699,
        "Longitude(deg)": 23.366297630505976,
        "Mean Anomaly(deg)": 66.07460614546183,
        "RAAN(deg)": 74.99957995086027,
        "Satellite Name": "Test1 334",
        "Satellite Number": 334,
        "Semi-Major Axis(m)": 6980739.136638005,
        "Time(s)": 10
    }
]